AUTCUBE 2               
1 43681U 18084K   26068.48152820  .00005282  00000+0  33524-3 0  9991
2 43681  98.0799 269.3640 0009685  28.2406 331.9345 15.09319394401889
STARLINK-3833           
1 52578U 22051AU  26068.40234779 -.00002004  00000+0 -10785-3 0  9996
2 52578  53.2173 135.4080 0001430 105.2509 254.8641 15.08843368211337
