[{"OBJECT_NAME":"AUTCUBE 2","OBJECT_ID":"2018-084K","EPOCH":"2026-03-09T11:33:24.036480","MEAN_MOTION":15.09319394,"ECCENTRICITY":0.00096854,"INCLINATION":98.0799,"RA_OF_ASC_NODE":269.364,"ARG_OF_PERICENTER":28.2406,"MEAN_ANOMALY":331.9345,"EPHEMERIS_TYPE":0,"CLASSIFICATION_TYPE":"U","NORAD_CAT_ID":43681,"ELEMENT_SET_NO":999,"REV_AT_EPOCH":40188,"BSTAR":0.00033524122,"MEAN_MOTION_DOT":5.282e-5,"MEAN_MOTION_DDOT":0},{"OBJECT_NAME":"STARLINK-3833","OBJECT_ID":"2022-051AU","EPOCH":"2026-03-09T09:39:22.849056","MEAN_MOTION":15.08843368,"ECCENTRICITY":0.00014301,"INCLINATION":53.2173,"RA_OF_ASC_NODE":135.408,"ARG_OF_PERICENTER":105.2509,"MEAN_ANOMALY":254.8641,"EPHEMERIS_TYPE":0,"CLASSIFICATION_TYPE":"U","NORAD_CAT_ID":52578,"ELEMENT_SET_NO":999,"REV_AT_EPOCH":21133,"BSTAR":-0.0001078499,"MEAN_MOTION_DOT":-2.004e-5,"MEAN_MOTION_DDOT":0}]
